{"fetched_at":"2026-03-29T02:12:04Z","count":15717,"tles":[{"name":"BEIDOU-3 M1 (C19)","line1":"1 43001U 17069A   26087.05271956  .00000001  00000+0  00000+0 0  9998","line2":"2 43001  56.6237  65.7550 0012597 313.5526  46.3376  1.86230890 57093","category":"GPS"}]}